{"type": "FeatureCollection", "features": [ {"type": "Feature", "properties": {"norad_id": 34790, "name": "COSMOS 2251 DEB", "group": "cosmos-2251-debris", "lat": -30.185642803075744, "lon": 65.63871812108152, "alt_km": 808.6645856491932, "timestamp": "2025-12-16T23:36:36.593186+00:00", "meta": {"OBJECT_NAME": "COSMOS 2251 DEB", "OBJECT_ID": "1993-036AAT", "EPOCH": "2025-12-16T03:06:00.756288", "MEAN_MOTION": 14.24647069, "ECCENTRICITY": 0.0100683, "INCLINATION": 74.0536, "RA_OF_ASC_NODE": 237.6034, "ARG_OF_PERICENTER": 298.5207, "MEAN_ANOMALY": 212.8818, "EPHEMERIS_TYPE": 0, "CLASSIFICATION_TYPE": "U", "NORAD_CAT_ID": 34790, "ELEMENT_SET_NO": 999, "REV_AT_EPOCH": 86621, "BSTAR": 0.00059061008, "MEAN_MOTION_DOT": 1.421e-05, "MEAN_MOTION_DDOT": 0}, "tle": {"line1": "1 34790U 93036AAT 25350.12917542  .00001421  00000+0  59061-3 0  9991", "line2": "2 34790  74.0536 237.6034 0100683 298.5207 212.8818 14.24647069866212"}}, "geometry": {"type": "Point", "coordinates": [65.63871812108152, -30.185642803075744]}}, {"type": "Feature", "properties": {"norad_id": 34792, "name": "COSMOS 2251 DEB", "group": "cosmos-2251-debris", "lat": -71.65023442567166, "lon": 101.87293661719937, "alt_km": 704.9994006338247, "timestamp": "2025-12-16T23:36:36.593197+00:00", "meta": {"OBJECT_NAME": "COSMOS 2251 DEB", "OBJECT_ID": "1993-036AAV", "EPOCH": "2025-12-15T22:20:01.680864", "MEAN_MOTION": 14.55982991, "ECCENTRICITY": 0.00124602, "INCLINATION": 74.0171, "RA_OF_ASC_NODE": 163.6528, "ARG_OF_PERICENTER": 257.8537, "MEAN_ANOMALY": 263.1783, "EPHEMERIS_TYPE": 0, "CLASSIFICATION_TYPE": "U", "NORAD_CAT_ID": 34792, "ELEMENT_SET_NO": 999, "REV_AT_EPOCH": 87696, "BSTAR": 0.00072187947, "MEAN_MOTION_DOT": 3.151e-05, "MEAN_MOTION_DDOT": 0}, "tle": {"line1": "1 34792U 93036AAV 25349.93057501  .00003151  00000+0  72188-3 0  9997", "line2": "2 34792  74.0171 163.6528 0012460 257.8537 263.1783 14.55982991876967"}}, "geometry": {"type": "Point", "coordinates": [101.87293661719937, -71.65023442567166]}}, {"type": "Feature", "properties": {"norad_id": 34793, "name": "COSMOS 2251 DEB", "group": "cosmos-2251-debris", "lat": 25.059185172332416, "lon": 54.81818963488928, "alt_km": 778.7294803608766, "timestamp": "2025-12-16T23:36:36.593207+00:00", "meta": {"OBJECT_NAME": "COSMOS 2251 DEB", "OBJECT_ID": "1993-036AAW", "EPOCH": "2025-12-16T03:34:06.314880", "MEAN_MOTION": 14.38650295, "ECCENTRICITY": 0.00504415, "INCLINATION": 74.0024, "RA_OF_ASC_NODE": 244.0692, "ARG_OF_PERICENTER": 37.2993, "MEAN_ANOMALY": 112.7251, "EPHEMERIS_TYPE": 0, "CLASSIFICATION_TYPE": "U", "NORAD_CAT_ID": 34793, "ELEMENT_SET_NO": 999, "REV_AT_EPOCH": 87379, "BSTAR": 0.00023108474, "MEAN_MOTION_DOT": 6.92e-06, "MEAN_MOTION_DDOT": 0}, "tle": {"line1": "1 34793U 93036AAW 25350.14868420  .00000692  00000+0  23108-3 0  9998", "line2": "2 34793  74.0024 244.0692 0050441  37.2993 112.7251 14.38650295873795"}}, "geometry": {"type": "Point", "coordinates": [54.81818963488928, 25.059185172332416]}}, {"type": "Feature", "properties": {"norad_id": 34796, "name": "COSMOS 2251 DEB", "group": "cosmos-2251-debris", "lat": 39.84326267028081, "lon": -137.7866147478606, "alt_km": 728.6817689206437, "timestamp": "2025-12-16T23:36:36.593217+00:00", "meta": {"OBJECT_NAME": "COSMOS 2251 DEB", "OBJECT_ID": "1993-036AAZ", "EPOCH": "2025-12-15T20:57:59.815872", "MEAN_MOTION": 14.48706583, "ECCENTRICITY": 0.01002779, "INCLINATION": 74.0299, "RA_OF_ASC_NODE": 210.4689, "ARG_OF_PERICENTER": 311.8419, "MEAN_ANOMALY": 61.4285, "EPHEMERIS_TYPE": 0, "CLASSIFICATION_TYPE": "U", "NORAD_CAT_ID": 34796, "ELEMENT_SET_NO": 999, "REV_AT_EPOCH": 88073, "BSTAR": 0.00041688974, "MEAN_MOTION_DOT": 1.644e-05, "MEAN_MOTION_DDOT": 0}, "tle": {"line1": "1 34796U 93036AAZ 25349.87360898  .00001644  00000+0  41689-3 0  9997", "line2": "2 34796  74.0299 210.4689 0100277 311.8419  61.4285 14.48706583880734"}}, "geometry": {"type": "Point", "coordinates": [-137.7866147478606, 39.84326267028081]}}, {"type": "Feature", "properties": {"norad_id": 34797, "name": "COSMOS 2251 DEB", "group": "cosmos-2251-debris", "lat": 67.55806483832882, "lon": 136.16211853327178, "alt_km": 775.0237789369776, "timestamp": "2025-12-16T23:36:36.593227+00:00", "meta": {"OBJECT_NAME": "COSMOS 2251 DEB", "OBJECT_ID": "1993-036ABA", "EPOCH": "2025-12-15T17:18:40.740768", "MEAN_MOTION": 14.428735, "ECCENTRICITY": 0.00715183, "INCLINATION": 73.9779, "RA_OF_ASC_NODE": 94.4289, "ARG_OF_PERICENTER": 207.3849, "MEAN_ANOMALY": 152.3532, "EPHEMERIS_TYPE": 0, "CLASSIFICATION_TYPE": "U", "NORAD_CAT_ID": 34797, "ELEMENT_SET_NO": 999, "REV_AT_EPOCH": 87458, "BSTAR": 0.0015954878, "MEAN_MOTION_DOT": 5.472e-05, "MEAN_MOTION_DDOT": 0}, "tle": {"line1": "1 34797U 93036ABA 25349.72130487  .00005472  00000+0  15955-2 0  9990", "line2": "2 34797  73.9779  94.4289 0071518 207.3849 152.3532 14.42873500874582"}}, "geometry": {"type": "Point", "coordinates": [136.16211853327178, 67.55806483832882]}}, {"type": "Feature", "properties": {"norad_id": 34814, "name": "COSMOS 2251 DEB", "group": "cosmos-2251-debris", "lat": -30.915934114001814, "lon": -52.39461656729615, "alt_km": 795.1251039787539, "timestamp": "2025-12-16T23:36:36.593237+00:00", "meta": {"OBJECT_NAME": "COSMOS 2251 DEB", "OBJECT_ID": "1993-036ABD", "EPOCH": "2025-12-15T06:16:46.279200", "MEAN_MOTION": 14.36906963, "ECCENTRICITY": 0.00560142, "INCLINATION": 73.8956, "RA_OF_ASC_NODE": 320.7607, "ARG_OF_PERICENTER": 209.789, "MEAN_ANOMALY": 212.7208, "EPHEMERIS_TYPE": 0, "CLASSIFICATION_TYPE": "U", "NORAD_CAT_ID": 34814, "ELEMENT_SET_NO": 999, "REV_AT_EPOCH": 87369, "BSTAR": 0.00061236247, "MEAN_MOTION_DOT": 1.818e-05, "MEAN_MOTION_DDOT": 0}, "tle": {"line1": "1 34814U 93036ABD 25349.26164675  .00001818  00000+0  61236-3 0  9999", "line2": "2 34814  73.8956 320.7607 0056014 209.7890 212.7208 14.36906963873698"}}, "geometry": {"type": "Point", "coordinates": [-52.39461656729615, -30.915934114001814]}}, {"type": "Feature", "properties": {"norad_id": 34815, "name": "COSMOS 2251 DEB", "group": "cosmos-2251-debris", "lat": 34.05134751067557, "lon": -115.3846175247409, "alt_km": 634.705333846885, "timestamp": "2025-12-16T23:36:36.593247+00:00", "meta": {"OBJECT_NAME": "COSMOS 2251 DEB", "OBJECT_ID": "1993-036ABE", "EPOCH": "2025-12-16T02:20:12.471648", "MEAN_MOTION": 14.78356018, "ECCENTRICITY": 0.00588609, "INCLINATION": 74.0453, "RA_OF_ASC_NODE": 235.2075, "ARG_OF_PERICENTER": 303.568, "MEAN_ANOMALY": 55.9883, "EPHEMERIS_TYPE": 0, "CLASSIFICATION_TYPE": "U", "NORAD_CAT_ID": 34815, "ELEMENT_SET_NO": 999, "REV_AT_EPOCH": 88677, "BSTAR": 0.00057447515, "MEAN_MOTION_DOT": 4.269e-05, "MEAN_MOTION_DDOT": 0}, "tle": {"line1": "1 34815U 93036ABE 25350.09736657  .00004269  00000+0  57448-3 0  9991", "line2": "2 34815  74.0453 235.2075 0058860 303.5680  55.9883 14.78356018886779"}}, "geometry": {"type": "Point", "coordinates": [-115.3846175247409, 34.05134751067557]}}, {"type": "Feature", "properties": {"norad_id": 34816, "name": "COSMOS 2251 DEB", "group": "cosmos-2251-debris", "lat": -39.62024690578655, "lon": 122.34986700677771, "alt_km": 1172.1956592567858, "timestamp": "2025-12-16T23:36:36.593273+00:00", "meta": {"OBJECT_NAME": "COSMOS 2251 DEB", "OBJECT_ID": "1993-036ABF", "EPOCH": "2025-12-15T18:06:42.079680", "MEAN_MOTION": 13.58332319, "ECCENTRICITY": 0.03733711, "INCLINATION": 73.8856, "RA_OF_ASC_NODE": 138.2013, "ARG_OF_PERICENTER": 202.1531, "MEAN_ANOMALY": 224.4448, "EPHEMERIS_TYPE": 0, "CLASSIFICATION_TYPE": "U", "NORAD_CAT_ID": 34816, "ELEMENT_SET_NO": 999, "REV_AT_EPOCH": 82824, "BSTAR": 0.0011149526, "MEAN_MOTION_DOT": 1.255e-05, "MEAN_MOTION_DDOT": 0}, "tle": {"line1": "1 34816U 93036ABF 25349.75465370  .00001255  00000+0  11150-2 0  9995", "line2": "2 34816  73.8856 138.2013 0373371 202.1531 224.4448 13.58332319828247"}}, "geometry": {"type": "Point", "coordinates": [122.34986700677771, -39.62024690578655]}}, {"type": "Feature", "properties": {"norad_id": 34818, "name": "COSMOS 2251 DEB", "group": "cosmos-2251-debris", "lat": 37.98152761478326, "lon": -57.94965027174352, "alt_km": 751.3150605271867, "timestamp": "2025-12-16T23:36:36.593285+00:00", "meta": {"OBJECT_NAME": "COSMOS 2251 DEB", "OBJECT_ID": "1993-036ABH", "EPOCH": "2025-12-16T07:26:50.142048", "MEAN_MOTION": 14.3697169, "ECCENTRICITY": 0.00243056, "INCLINATION": 74.0362, "RA_OF_ASC_NODE": 290.3739, "ARG_OF_PERICENTER": 5.1622, "MEAN_ANOMALY": 152.1141, "EPHEMERIS_TYPE": 0, "CLASSIFICATION_TYPE": "U", "NORAD_CAT_ID": 34818, "ELEMENT_SET_NO": 999, "REV_AT_EPOCH": 87421, "BSTAR": 0.00020479169, "MEAN_MOTION_DOT": 5.82e-06, "MEAN_MOTION_DDOT": 0}, "tle": {"line1": "1 34818U 93036ABH 25350.31030257  .00000582  00000+0  20479-3 0  9990", "line2": "2 34818  74.0362 290.3739 0024305   5.1622 152.1141 14.36971690874214"}}, "geometry": {"type": "Point", "coordinates": [-57.94965027174352, 37.98152761478326]}}, {"type": "Feature", "properties": {"norad_id": 34819, "name": "COSMOS 2251 DEB", "group": "cosmos-2251-debris", "lat": 9.822108902838401, "lon": 137.34425776132514, "alt_km": 690.1307173104797, "timestamp": "2025-12-16T23:36:36.593296+00:00", "meta": {"OBJECT_NAME": "COSMOS 2251 DEB", "OBJECT_ID": "1993-036ABJ", "EPOCH": "2025-12-16T02:47:00.153600", "MEAN_MOTION": 14.64020669, "ECCENTRICITY": 0.00156426, "INCLINATION": 74.0171, "RA_OF_ASC_NODE": 136.1678, "ARG_OF_PERICENTER": 230.4612, "MEAN_ANOMALY": 248.0037, "EPHEMERIS_TYPE": 0, "CLASSIFICATION_TYPE": "U", "NORAD_CAT_ID": 34819, "ELEMENT_SET_NO": 999, "REV_AT_EPOCH": 88278, "BSTAR": 0.0011169462, "MEAN_MOTION_DOT": 5.841e-05, "MEAN_MOTION_DDOT": 0}, "tle": {"line1": "1 34819U 93036ABJ 25350.11597400  .00005841  00000+0  11169-2 0  9995", "line2": "2 34819  74.0171 136.1678 0015642 230.4612 248.0037 14.64020669882780"}}, "geometry": {"type": "Point", "coordinates": [137.34425776132514, 9.822108902838401]}}]}